C/2009 W2 (Boattini),e,164.5055,199.6199,121.6146,9217,0.0000011,0.99925057,0.0000,05/07.4000/2010,2000,g  7.0,4.0
# From MPC105235
P/2009 WX51 (Catalina),e,9.6001,31.6651,118.1306,3.076726,0.1826294,0.74059522,178.9754,03/01.0/2018,2000,g 19.0,2.0
# From MPC 82316
C/2009 Y1 (Catalina),e,107.3352,160.2620,127.1459,343.6700,0.0001547,0.99272504,0.0000,01/30.0943/2011,2000,g  9.0,4.0
# From MPC 74247
P/2009 Y2 (Kowalski),e,29.9518,262.0200,172.3831,6.543085,0.0588885,0.63626229,170.9842,03/01.0/2018,2000,g 13.0,4.0
# From MPC 69417
P/2010 A1 (Hill),e,10.3085,47.3170,13.3072,4.389188,0.1071835,0.55408657,335.5836,03/01.0/2018,2000,g 13.0,4.0
# From MPC 75711
P/2010 A3 (Hill),e,14.9718,64.6590,41.4737,6.073016,0.0658563,0.73209185,190.3420,03/01.0/2018,2000,g 14.0,4.0
# From MPC 77403
C/2010 A4 (Siding Spring),e,96.7442,346.6815,271.5820,287.5347,0.0002021,0.99053244,0.0000,10/11.4174/2010,2000,g 12.5,4.0
# From MPC 72851
P/2010 A5 (LINEAR),e,5.7941,277.6866,307.0179,5.089035,0.0858521,0.66543717,246.1807,03/01.0/2018,2000,g 13.0,4.0
# From MPC 80896
C/2010 B1 (Cardinal),e,101.7898,277.2755,211.6453,30786,0.0000002,0.99990437,0.0000,02/07.5329/2011,2000,g  7.5,4.0
# From MPC105235
P/2010 B2 (WISE),e,8.9369,0.8578,155.9836,3.107764,0.1799004,0.48052435,178.4345,03/01.0/2018,2000,g 17.0,4.0
# From MPC 75008
P/2010 C1 (Scotti),e,9.1361,141.8885,4.0609,7.093808,0.0521657,0.25995623,157.0691,03/01.0/2018,2000,g  9.5,4.0
# From MPC 75008
P/2010 D2 (WISE),e,57.1099,319.8442,120.3314,6.713545,0.0566600,0.45070422,165.6733,03/01.0/2018,2000,g 16.0,4.0
# From MPC 84315
C/2010 D3 (WISE),h,09/03.2746/2010,76.3157,255.0655,304.6542,1.000039,4.249135,2000,9.0,4.0
# From MPC 76025
C/2010 D4 (WISE),e,105.7822,266.7397,44.3856,62.40232,0.0019994,0.88535864,6.5208,03/01.0/2018,2000,g  6.5,4.0
# From MPC 74248
C/2010 DG56 (WISE),e,160.4110,4.1319,318.3513,67.32000,0.0017844,0.97659625,0.0000,05/16.5576/2010,2000,g 16.0,4.0
# From MPC 70361
C/2010 E1 (Garradd),e,71.6166,169.2132,297.2188,112.3975,0.0008271,0.97609802,0.0000,11/04.2214/2009,2000,g 11.5,4.0
# From MPC 75009
P/2010 E2 (Jarnac),e,15.4618,177.8134,8.3195,8.626690,0.0388989,0.72229892,112.0889,03/01.0/2018,2000,g 14.0,4.0
# From MPC 70361
C/2010 E5 (Scotti),e,18.9079,16.9239,148.1025,24.99278,0.0078883,0.84371339,23.8399,03/01.0/2018,2000,g 10.5,4.0
# From MPC 72132
C/2010 F1 (Boattini),e,64.8634,344.3489,127.7758,69.52492,0.0017002,0.94798571,5.1611,03/01.0/2018,2000,g  9.5,4.0
# From MPC 82316
C/2010 F3 (Scotti),e,4.6480,157.3294,31.4727,64.49692,0.0019028,0.91529408,5.2603,03/01.0/2018,2000,g  8.5,4.0
# From MPC 82316
C/2010 FB87 (WISE-Garradd),e,107.8626,90.0401,265.0820,226.5824,0.0002890,0.98741554,0.0000,11/05.5050/2010,2000,g 10.0,4.0
# From MPC 70816
C/2010 G1 (Boattini),e,78.1484,287.6122,168.8006,526.5325,0.0000816,0.99769034,0.0000,04/01.6374/2010,2000,g 12.5,4.0
# From MPC 83142
C/2010 G2 (Hill),e,103.7537,247.0457,137.4061,93.40063,0.0010919,0.97884943,0.0000,09/02.4295/2011,2000,g  8.0,4.0
# From MPC 75292
C/2010 G3 (WISE),e,108.3312,313.7810,75.2137,976.3866,0.0000323,0.99495951,0.0000,04/06.5044/2010,2000,g  8.5,4.0
# From MPC 82316
C/2010 H1 (Garradd),e,36.5511,347.3417,233.7920,3934,0.0000040,0.99930372,0.0000,06/21.4061/2010,2000,g 13.0,4.0
# From MPC 72851
P/2010 H2 (Vales),e,14.2709,64.2465,129.3690,3.848925,0.1305254,0.19561450,21.8005,03/01.0/2018,2000,g  6.0,4.0
# From MPC 70361
P/2010 H3 (SOHO),e,23.8273,78.2654,24.9230,3.068275,0.1833845,0.98463758,0.0000,09/25.6323/2015,2000,g 20.0,2.0
# From MPC 73463
P/2010 H4 (Scotti),e,2.3223,44.7601,179.4119,6.582155,0.0583649,0.26910608,163.9887,03/01.0/2018,2000,g 10.5,4.0
# From MPC 74637
P/2010 H5 (Scotti),e,14.0864,24.7998,175.1509,7.142377,0.0516345,0.15612075,148.3875,03/01.0/2018,2000,g 13.0,2.0
# From MPC 71278
C/2010 J1 (Boattini),e,134.5053,254.5667,332.8363,36.00770,0.0045615,0.95281115,13.4553,03/01.0/2018,2000,g 12.0,4.0
# From MPC 75712
C/2010 J2 (McNaught),e,125.9241,311.7675,4.3934,1313,0.0000207,0.99742659,0.0000,05/31.7107/2010,2000,g  9.0,4.0
# From MPC 82316
P/2010 J3 (McMillan),e,13.2761,106.4580,157.4341,8.959011,0.0367548,0.72760267,100.8279,03/01.0/2018,2000,g 11.0,4.0
# From MPC 84315
P/2010 JC81 (WISE),e,38.6045,30.8332,12.5542,8.122867,0.0425736,0.77581115,106.6977,03/01.0/2018,2000,g  9.0,4.0
# From MPC 74248
C/2010 KW7 (WISE),e,147.0490,105.0965,332.7309,98.59704,0.0010067,0.97386326,0.0000,10/12.7835/2010,2000,g 15.0,2.0
# From MPC 83518
C/2010 L3 (Catalina),h,11/09.6122/2010,102.4958,38.2793,121.8807,1.000156,9.901678,2000,4.5,4.0
# From MPC 74248
C/2010 L4 (WISE),e,102.7594,125.4231,95.6011,79.68585,0.0013856,0.96474671,4.0535,03/01.0/2018,2000,g 11.5,4.0
# From MPC 74248
C/2010 L5 (WISE),e,146.8660,206.3756,214.3287,8.023194,0.0433694,0.90247150,124.5928,03/01.0/2018,2000,g 18.0,4.0
# From MPC 88325
C/2010 R1 (LINEAR),e,156.9385,343.7011,114.6544,10570,0.0000009,0.99946625,0.0000,05/16.8205/2012,2000,g  6.0,4.0
# From MPEC 2018-D91
C/2010 S1 (LINEAR),h,05/18.0958/2013,125.3007,93.4221,118.4737,1.000755,5.894859,2000,3.5,4.0
# From MPC 74248
P/2010 T2 (PANSTARRS),e,8.0416,59.5576,355.4063,5.481298,0.0768031,0.31794198,186.9647,03/01.0/2018,2000,g 11.5,4.0
# From MPC 81468
P/2010 TO20 (LINEAR-Grauer),e,2.4816,43.2899,268.9738,5.815785,0.0702735,0.05273336,236.6601,03/01.0/2018,2000,g  9.0,4.0
# From MPC 82316
P/2010 U1 (Boattini),e,8.2140,280.7084,86.0867,6.518785,0.0592181,0.24638976,175.2021,03/01.0/2018,2000,g  9.5,4.0
# From MPC 74249
P/2010 U2 (Hill),e,16.8287,357.0816,44.3634,4.283861,0.1111606,0.40060350,297.3656,03/01.0/2018,2000,g 13.0,4.0
# From MPEC 2018-D91
C/2010 U3 (Boattini),e,55.5126,43.0739,88.0783,57880,0.0000001,0.99985409,0.0000,02/26.4801/2019,2000,g  1.0,4.0
# From MPC 79021
P/2010 UH55 (Spacewatch),e,8.1750,233.7306,224.6645,6.633311,0.0576911,0.56789694,143.5124,03/01.0/2018,2000,g 11.0,4.0
# From MPC 75009
P/2010 WK (LINEAR),e,11.4116,11.3814,41.1048,5.752712,0.0714324,0.68948236,192.7372,03/01.0/2018,2000,g 14.5,2.0
# From MPC 76025
C/2010 X1 (Elenin),e,1.8813,321.9739,344.5792,463.6377,0.0000987,0.99898828,0.0000,09/10.1915/2011,2000,g 10.0,4.0
# From MPC 82317
P/2011 A2 (Scotti),e,4.4755,54.6694,94.6082,3.103734,0.1802508,0.49971233,112.6812,03/01.0/2018,2000,g 16.5,4.0
# From MPC 85831
C/2011 A3 (Gibbs),e,26.0853,124.7230,141.1202,822.9729,0.0000417,0.99716735,0.0000,12/17.7958/2011,2000,g 10.0,4.0
# From MPC 82317
C/2011 C1 (McNaught),e,16.3043,191.2146,85.6650,513.5176,0.0000847,0.99829120,0.0000,04/19.1258/2011,2000,g 15.5,4.0
# From MPC 84021
P/2011 C2 (Gibbs),e,10.8908,12.0918,161.1352,7.407872,0.0488837,0.27072703,109.4984,03/01.0/2018,2000,g  9.0,4.0
# From MPC 75516
C/2011 C3 (Gibbs),e,49.5110,20.8320,206.8006,310.7097,0.0001800,0.99513072,0.0000,04/09.6430/2011,2000,g 17.0,4.0
# From MPC 86639
P/2011 CR42 (Catalina),e,8.4646,58.7222,173.1707,3.508699,0.1499633,0.28134761,342.9391,03/01.0/2018,2000,g 13.0,2.0
# From MPC 89309
C/2011 F1 (LINEAR),e,56.7487,84.9979,192.5078,2829,0.0000066,0.99935882,0.0000,01/08.6353/2013,2000,g  5.0,4.0
# From MPC 79866
P/2011 FR143 (Lemmon),e,16.0172,190.9238,350.1561,6.845270,0.0550324,0.45329702,140.1205,03/01.0/2018,2000,g 14.0,2.0
# From MPC 80044
C/2011 G1 (McNaught),h,09/17.3466/2011,162.2072,153.1001,355.1812,1.001271,2.162832,2000,12.0,4.0
# From MPC106343
C/2011 J2 (LINEAR),h,12/26.0262/2013,122.7651,163.9311,85.2730,1.001666,3.438848,2000,5.5,3.6
# From MPEC 2015-K84
C/2011 J2-B (LINEAR),h,12/25.9038/2013,122.7678,163.9275,85.2305,1.002427,3.438051,2000,9.0,3.6
# From unp
C/2011 J2-C (LINEAR),h,12/25.9963/2013,122.7631,163.9327,85.2477,1.002463,3.437888,2000,11.0,3.6
# From MPC 75713
C/2011 J3 (LINEAR),e,114.4385,21.5777,27.8040,19.53584,0.0114145,0.92582848,29.6260,03/01.0/2018,2000,g 15.0,4.0
# From MPC 82317
P/2011 JB15 (Spacewatch-Boattini),e,19.1496,153.6971,110.6298,7.344494,0.0495178,0.31869526,110.4693,03/01.0/2018,2000,g  9.0,4.0
# From MPC 75516
C/2011 K1 (Schwartz-Holvorcem),e,122.6323,70.5596,166.9415,3993,0.0000039,0.99915311,0.0000,04/19.3497/2011,2000,g 12.0,4.0
# From MPEC 2018-D91
C/2011 KP36 (Spacewatch),e,18.9838,173.3901,180.5562,38.45689,0.0041328,0.87305532,2.6592,03/01.0/2018,2000,g  4.5,4.0
# From MPC 83518
C/2011 L1 (McNaught),e,65.4843,252.1323,294.5227,11.03765,0.0268775,0.79682187,70.6820,03/01.0/2018,2000,g 11.0,4.0
# From MPC 78588
C/2011 L2 (McNaught),e,104.4334,131.4672,257.0568,5230,0.0000026,0.99962686,0.0000,10/29.5840/2011,2000,g 12.5,4.0
# From MPC 77405
C/2011 L3 (McNaught),e,87.3063,307.7165,27.6098,902.9869,0.0000363,0.99787026,0.0000,08/08.1840/2011,2000,g 12.5,4.0
# From MPC103843
C/2011 L4 (PANSTARRS),e,83.8686,66.0173,333.6050,4703,0.0000031,0.99993595,0.0000,03/09.3359/2013,2000,g  5.5,4.0
# From MPC 82718
C/2011 L6 (Boattini),e,171.4424,214.4272,331.4676,8982,0.0000012,0.99924272,0.0000,01/17.5509/2011,2000,g  9.0,4.0
# From MPC 75714
C/2011 M1 (LINEAR),h,09/05.5946/2011,70.1483,324.9347,119.7592,1.002423,0.908463,2000,12.0,4.0
# From MPC 87913
P/2011 N1 (ASH),e,35.6999,77.6156,330.5108,6.254984,0.0630035,0.54323167,132.7490,03/01.0/2018,2000,g 11.5,4.0
# From MPC 75714
P/2011 NO1 (Elenin),e,15.2479,295.9016,263.7481,5.520029,0.0759962,0.77607390,197.0327,03/01.0/2018,2000,g 15.0,4.0
# From MPC 76569
C/2011 N2 (McNaught),e,33.7532,273.8308,357.0094,1563,0.0000160,0.99836793,0.0000,10/20.1151/2011,2000,g 11.5,4.0
# From MPC 87476
C/2011 O1 (LINEAR),e,76.6190,89.7736,232.3347,726.4067,0.0000503,0.99464731,0.0000,08/18.1599/2012,2000,g  7.0,4.0
# From MPC 78186
P/2011 P1 (McNaught),e,5.6471,4.2856,348.9501,7.484852,0.0481315,0.32444805,134.3109,03/01.0/2018,2000,g  9.0,4.0
# From MPC107047
C/2011 P2 (PANSTARRS),e,9.0066,203.9847,75.8773,9.713881,0.0325548,0.36988232,88.8209,03/01.0/2018,2000,g  8.5,4.0
# From MPC 79867
C/2011 Q1 (PANSTARRS),e,94.8599,142.1818,135.7653,3428,0.0000049,0.99802670,0.0000,06/28.8785/2011,2000,g  9.5,4.0
# From MPC 79342
